{"type": "FeatureCollection", "features": [{"type": "Feature", "properties": {"norad_id": 28890, "name": "BEIJING 1", "group": "dmc", "lat": -36.099588384635936, "lon": -58.26569368839625, "alt_km": 693.3177791347089, "timestamp": "2025-12-26T06:43:29.173384+00:00", "meta": {"OBJECT_NAME": "BEIJING 1", "OBJECT_ID": "2005-043A", "EPOCH": "2025-12-25T23:10:34.351968", "MEAN_MOTION": 14.6337783, "ECCENTRICITY": 0.00158315, "INCLINATION": 98.2664, "RA_OF_ASC_NODE": 127.5046, "ARG_OF_PERICENTER": 102.3973, "MEAN_ANOMALY": 257.9002, "EPHEMERIS_TYPE": 0, "CLASSIFICATION_TYPE": "U", "NORAD_CAT_ID": 28890, "ELEMENT_SET_NO": 999, "REV_AT_EPOCH": 7531, "BSTAR": 9.0116198e-05, "MEAN_MOTION_DOT": 4.18e-06, "MEAN_MOTION_DDOT": 0}, "tle": {"line1": "1 28890U 05043A   25359.96567537  .00000418  00000+0  90116-4 0  9994", "line2": "2 28890  98.2664 127.5046 0015831 102.3973 257.9002 14.63377830 75315"}}, "geometry": {"type": "Point", "coordinates": [-58.26569368839625, -36.099588384635936]}}, {"type": "Feature", "properties": {"norad_id": 33320, "name": "HUANJING 1A (HJ-1A)", "group": "dmc", "lat": 40.77872397857165, "lon": 174.67536703253398, "alt_km": 626.6194089978408, "timestamp": "2025-12-26T06:43:29.173408+00:00", "meta": {"OBJECT_NAME": "HUANJING 1A (HJ-1A)", "OBJECT_ID": "2008-041A", "EPOCH": "2025-12-25T23:37:35.715360", "MEAN_MOTION": 14.83433678, "ECCENTRICITY": 0.00191297, "INCLINATION": 97.6552, "RA_OF_ASC_NODE": 347.73, "ARG_OF_PERICENTER": 351.9535, "MEAN_ANOMALY": 8.137, "EPHEMERIS_TYPE": 0, "CLASSIFICATION_TYPE": "U", "NORAD_CAT_ID": 33320, "ELEMENT_SET_NO": 999, "REV_AT_EPOCH": 93272, "BSTAR": 0.00018524386, "MEAN_MOTION_DOT": 1.474e-05, "MEAN_MOTION_DDOT": 0}, "tle": {"line1": "1 33320U 08041A   25359.98444115  .00001474  00000+0  18524-3 0  9992", "line2": "2 33320  97.6552 347.7300 0019129 351.9535   8.1370 14.83433678932723"}}, "geometry": {"type": "Point", "coordinates": [174.67536703253398, 40.77872397857165]}}, {"type": "Feature", "properties": {"norad_id": 33321, "name": "HUANJING 1B (HJ-1B)", "group": "dmc", "lat": -28.60358477777433, "lon": -4.127017957016226, "alt_km": 613.5954800081945, "timestamp": "2025-12-26T06:43:29.173423+00:00", "meta": {"OBJECT_NAME": "HUANJING 1B (HJ-1B)", "OBJECT_ID": "2008-041B", "EPOCH": "2025-12-25T22:45:23.995296", "MEAN_MOTION": 14.82857109, "ECCENTRICITY": 0.0037654, "INCLINATION": 97.6409, "RA_OF_ASC_NODE": 351.3576, "ARG_OF_PERICENTER": 33.9078, "MEAN_ANOMALY": 326.4532, "EPHEMERIS_TYPE": 0, "CLASSIFICATION_TYPE": "U", "NORAD_CAT_ID": 33321, "ELEMENT_SET_NO": 999, "REV_AT_EPOCH": 93273, "BSTAR": 0.00023111722, "MEAN_MOTION_DOT": 1.843e-05, "MEAN_MOTION_DDOT": 0}, "tle": {"line1": "1 33321U 08041B   25359.94819439  .00001843  00000+0  23112-3 0  9993", "line2": "2 33321  97.6409 351.3576 0037654  33.9078 326.4532 14.82857109932738"}}, "geometry": {"type": "Point", "coordinates": [-4.127017957016226, -28.60358477777433]}}, {"type": "Feature", "properties": {"norad_id": 33446, "name": "YAOGAN-4", "group": "dmc", "lat": -56.04253234225506, "lon": 98.31780121008471, "alt_km": 620.7193386784993, "timestamp": "2025-12-26T06:43:29.173434+00:00", "meta": {"OBJECT_NAME": "YAOGAN-4", "OBJECT_ID": "2008-061A", "EPOCH": "2025-12-25T18:19:17.173344", "MEAN_MOTION": 14.8271976, "ECCENTRICITY": 0.00129661, "INCLINATION": 97.9198, "RA_OF_ASC_NODE": 289.7359, "ARG_OF_PERICENTER": 277.0684, "MEAN_ANOMALY": 82.9055, "EPHEMERIS_TYPE": 0, "CLASSIFICATION_TYPE": "U", "NORAD_CAT_ID": 33446, "ELEMENT_SET_NO": 999, "REV_AT_EPOCH": 91996, "BSTAR": 0.00018510552, "MEAN_MOTION_DOT": 1.442e-05, "MEAN_MOTION_DDOT": 0}, "tle": {"line1": "1 33446U 08061A   25359.76339321  .00001442  00000+0  18511-3 0  9992", "line2": "2 33446  97.9198 289.7359 0012966 277.0684  82.9055 14.82719760919964"}}, "geometry": {"type": "Point", "coordinates": [98.31780121008471, -56.04253234225506]}}, {"type": "Feature", "properties": {"norad_id": 35681, "name": "DEIMOS-1", "group": "dmc", "lat": -10.289716610946003, "lon": 161.66424676582446, "alt_km": 648.8782297004891, "timestamp": "2025-12-26T06:43:29.173445+00:00", "meta": {"OBJECT_NAME": "DEIMOS-1", "OBJECT_ID": "2009-041A", "EPOCH": "2025-12-25T22:37:51.672288", "MEAN_MOTION": 14.74971621, "ECCENTRICITY": 0.00024534, "INCLINATION": 97.7158, "RA_OF_ASC_NODE": 159.9324, "ARG_OF_PERICENTER": 59.8125, "MEAN_ANOMALY": 300.3327, "EPHEMERIS_TYPE": 0, "CLASSIFICATION_TYPE": "U", "NORAD_CAT_ID": 35681, "ELEMENT_SET_NO": 999, "REV_AT_EPOCH": 88134, "BSTAR": 0.00010562581, "MEAN_MOTION_DOT": 6.63e-06, "MEAN_MOTION_DDOT": 0}, "tle": {"line1": "1 35681U 09041A   25359.94295917  .00000663  00000+0  10563-3 0  9999", "line2": "2 35681  97.7158 159.9324 0002453  59.8125 300.3327 14.74971621881343"}}, "geometry": {"type": "Point", "coordinates": [161.66424676582446, -10.289716610946003]}}, {"type": "Feature", "properties": {"norad_id": 35683, "name": "UK-DMC 2", "group": "dmc", "lat": 37.24155429524227, "lon": 128.77564579895247, "alt_km": 639.7666629302039, "timestamp": "2025-12-26T06:43:29.173456+00:00", "meta": {"OBJECT_NAME": "UK-DMC 2", "OBJECT_ID": "2009-041C", "EPOCH": "2025-12-25T22:25:03.889056", "MEAN_MOTION": 14.75648623, "ECCENTRICITY": 0.00015781, "INCLINATION": 97.8573, "RA_OF_ASC_NODE": 134.4652, "ARG_OF_PERICENTER": 91.877, "MEAN_ANOMALY": 268.2621, "EPHEMERIS_TYPE": 0, "CLASSIFICATION_TYPE": "U", "NORAD_CAT_ID": 35683, "ELEMENT_SET_NO": 999, "REV_AT_EPOCH": 88101, "BSTAR": 0.0001572623, "MEAN_MOTION_DOT": 1.025e-05, "MEAN_MOTION_DDOT": 0}, "tle": {"line1": "1 35683U 09041C   25359.93407279  .00001025  00000+0  15726-3 0  9995", "line2": "2 35683  97.8573 134.4652 0001578  91.8770 268.2621 14.75648623881015"}}, "geometry": {"type": "Point", "coordinates": [128.77564579895247, 37.24155429524227]}}, {"type": "Feature", "properties": {"norad_id": 40715, "name": "DMC3-FM1", "group": "dmc", "lat": -24.152423793648925, "lon": 43.51532004162548, "alt_km": 616.3064807656665, "timestamp": "2025-12-26T06:43:29.173466+00:00", "meta": {"OBJECT_NAME": "DMC3-FM1", "OBJECT_ID": "2015-032A", "EPOCH": "2025-12-25T21:43:27.616800", "MEAN_MOTION": 14.85461477, "ECCENTRICITY": 0.0004085, "INCLINATION": 97.6679, "RA_OF_ASC_NODE": 226.6177, "ARG_OF_PERICENTER": 266.1617, "MEAN_ANOMALY": 93.9132, "EPHEMERIS_TYPE": 0, "CLASSIFICATION_TYPE": "U", "NORAD_CAT_ID": 40715, "ELEMENT_SET_NO": 999, "REV_AT_EPOCH": 56418, "BSTAR": 9.2727768e-05, "MEAN_MOTION_DOT": 7.48e-06, "MEAN_MOTION_DDOT": 0}, "tle": {"line1": "1 40715U 15032A   25359.90518075  .00000748  00000+0  92728-4 0  9997", "line2": "2 40715  97.6679 226.6177 0004085 266.1617  93.9132 14.85461477564188"}}, "geometry": {"type": "Point", "coordinates": [43.51532004162548, -24.152423793648925]}}, {"type": "Feature", "properties": {"norad_id": 40716, "name": "DMC3-FM2", "group": "dmc", "lat": 80.36680740254113, "lon": 175.83975505728168, "alt_km": 607.9029285329534, "timestamp": "2025-12-26T06:43:29.173477+00:00", "meta": {"OBJECT_NAME": "DMC3-FM2", "OBJECT_ID": "2015-032B", "EPOCH": "2025-12-25T22:15:49.851648", "MEAN_MOTION": 14.85465049, "ECCENTRICITY": 0.00045805, "INCLINATION": 97.6735, "RA_OF_ASC_NODE": 228.0927, "ARG_OF_PERICENTER": 272.49, "MEAN_ANOMALY": 87.5791, "EPHEMERIS_TYPE": 0, "CLASSIFICATION_TYPE": "U", "NORAD_CAT_ID": 40716, "ELEMENT_SET_NO": 999, "REV_AT_EPOCH": 56418, "BSTAR": 0.00016671421, "MEAN_MOTION_DOT": 1.386e-05, "MEAN_MOTION_DDOT": 0}, "tle": {"line1": "1 40716U 15032B   25359.92766032  .00001386  00000+0  16671-3 0  9999", "line2": "2 40716  97.6735 228.0927 0004580 272.4900  87.5791 14.85465049564185"}}, "geometry": {"type": "Point", "coordinates": [175.83975505728168, 80.36680740254113]}}, {"type": "Feature", "properties": {"norad_id": 40717, "name": "DMC3-FM3", "group": "dmc", "lat": -31.776980732950893, "lon": -125.13081764735577, "alt_km": 616.7215568185411, "timestamp": "2025-12-26T06:43:29.173487+00:00", "meta": {"OBJECT_NAME": "DMC3-FM3", "OBJECT_ID": "2015-032C", "EPOCH": "2025-12-25T22:47:08.236896", "MEAN_MOTION": 14.8545223, "ECCENTRICITY": 0.00038598, "INCLINATION": 97.6793, "RA_OF_ASC_NODE": 229.7555, "ARG_OF_PERICENTER": 274.0379, "MEAN_ANOMALY": 86.0395, "EPHEMERIS_TYPE": 0, "CLASSIFICATION_TYPE": "U", "NORAD_CAT_ID": 40717, "ELEMENT_SET_NO": 999, "REV_AT_EPOCH": 56419, "BSTAR": 0.00018539179, "MEAN_MOTION_DOT": 1.547e-05, "MEAN_MOTION_DDOT": 0}, "tle": {"line1": "1 40717U 15032C   25359.94940089  .00001547  00000+0  18539-3 0  9992", "line2": "2 40717  97.6793 229.7555 0003859 274.0379  86.0395 14.85452230564194"}}, "geometry": {"type": "Point", "coordinates": [-125.13081764735577, -31.776980732950893]}}]}